STARLINK-2022           
1 47643U 21012Z   24294.78611474 -.00008550  00000+0 -55630-3 0  9990
2 47643  53.0531 158.2185 0001331  88.1997 271.9144 15.06365339204165
